{
  "norad_id": 63946,
  "name": "STARLINK-34039",
  "history": [
    {
      "epoch": "2026-03-28T19:22:12.085248Z",
      "apogee_km": 574.0037425173696,
      "perigee_km": 570.0345083541324,
      "latitude_deg": 1.5192055391607321e-05,
      "longitude_deg": 109.57601580296675,
      "height_km": 574.4655359502635,
      "semi_major_axis_km": 6950.15612543575,
      "eccentricity": 0.00028555,
      "inclination_deg": 70.0019,
      "raan_deg": 226.3486,
      "arg_perigee_deg": 269.4529,
      "mean_anomaly_deg": 90.6303,
      "mean_motion_rev_day": 14.98341889
    }
  ]
}